ARIANE 5 R/B            
1 28499U 04049H   26002.47279438  .00002923  00000+0  32821-3 0  9997
2 28499  98.2526 168.4999 0083947 204.9822 154.7319 14.85082209135963
CZ-2D R/B               
1 28738U 05024B   26002.78060632  .00047459  00000+0  71555-3 0  9995
2 28738  97.3617  15.7979 0003080 258.3331 101.7578 15.54638988129522
ALOS (DAICHI)           
1 28931U 06002A   25351.73419158  .00001110  00000+0  19545-3 0  9994
2 28931  98.1098 303.1864 0001361 113.5739 246.5610 14.69501788 61443
H-2A R/B                
1 28932U 06002B   26002.65947109  .00016146  00000+0  83427-3 0  9997
2 28932  98.2327 144.1257 0054717 105.8101 254.9171 15.15059265 84438
RESURS-DK 1             
1 29228U 06021A   26002.53430127  .00005107  00000+0  30015-3 0  9991
2 29228  69.9345  48.0920 0006983 241.8740 118.1720 15.12303850 77525
CZ-4B R/B               
1 29507U 06046C   26002.69301558  .00008150  00000+0  41978-3 0  9991
2 29507  97.5705  47.7747 0034916 134.4698 225.9399 15.16121748 50046
CZ-2C R/B               
1 31114U 07010B   26002.78397012  .00000319  00000+0  16534-3 0  9999
2 31114  98.3974 119.3759 0059803 125.3426 235.3362 14.20220226970365
COSMO-SKYMED 1          
1 31598U 07023A   26002.79259824  .00007068  00000+0  63590-3 0  9990
2 31598  97.8826 193.3319 0001283  88.7016 271.4352 14.95953491  5055
COSMOS 2428             
1 31792U 07029A   26002.62366620  .00000352  00000+0  21453-3 0  9998
2 31792  70.9379 342.0313 0004883 354.4683   5.6383 14.12900868954766
SL-16 R/B               
1 31793U 07029B   26002.62156079  .00000192  00000+0  12429-3 0  9999
2 31793  70.9774 311.2621 0002065 270.6221 261.7812 14.14824871956027
KORONAS-FOTON           
1 33504U 09003A   26002.39840276  .00015340  00000+0  36223-3 0  9997
2 33504  82.4307 344.6913 0012623  44.9478 315.2787 15.41640185935523
CZ-2C R/B               
1 37731U 11030B   26002.80902640  .00002536  00000+0  32690-3 0  9993
2 37731  97.8437 321.4532 0052086 203.3243 215.3048 14.80978214780348
H-2A R/B                
1 38341U 12025E   26002.79662429  .00004895  00000+0  44935-3 0  9997
2 38341  98.4627 324.6551 0045082 166.5494 193.6937 14.94605124738379
SHIJIAN-16 (SJ-16)      
1 39358U 13057A   26002.79119723  .00006568  00000+0  64677-3 0  9990
2 39358  74.9740 309.8188 0017967 271.3210  88.5920 14.92086006661678
SL-4 R/B                
1 39679U 14021B   26002.55284853  .00018425  00000+0  42852-3 0  9995
2 39679  51.6093 299.4080 0100165 221.4968 137.8379 15.37224019646094
ALOS-2                  
1 39766U 14029A   26002.77686596  .00008423  00000+0  11334-2 0  9991
2 39766  97.9222 102.3239 0001343  98.7293 261.4070 14.79471312627120
YAOGAN-29               
1 41038U 15069A   26002.80488102  .00000274  00000+0  40463-4 0  9991
2 41038  98.0206  31.0429 0001466 147.9603 212.1700 14.82908060546117
ASTRO-H (HITOMI)        
1 41337U 16012A   26002.52054478  .00005824  00000+0  34841-3 0  9994
2 41337  31.0008  63.3877 0009599  27.6364 332.4783 15.09515369542225
HXMT (HUIYAN)           
1 42758U 17034A   26002.54004167  .00010228  00000+0  51959-3 0  9992
2 42758  43.0156  24.1826 0032249 179.0039 181.0878 15.16536228472497
CZ-2C R/B               
1 43521U 18054D   26002.44289774  .00172949  00000+0  90664-3 0  9997
2 43521  35.1338  40.0224 0012451 349.8056  10.2425 15.79181139418327
SAOCOM 1A               
1 43641U 18076A   26002.60019394 -.00000224  00000+0 -21537-4 0  9993
2 43641  97.8843 191.7182 0001330  83.2580 276.8784 14.82157569391576
H-2A R/B                
1 43682U 18084L   26002.51484134  .00030227  00000+0  79270-3 0  9995
2 43682  98.8758 205.9140 0026068 253.5313 106.3063 15.38280019395592
SAOCOM 1B               
1 46265U 20059A   26002.76644302  .00001288  00000+0  16833-3 0  9993
2 46265  97.8841 190.9818 0001476  84.3959 275.7422 14.82168157288981
CSS (TIANHE)            
1 48274U 21035A   26002.71819254  .00030782  00000+0  37051-3 0  9991
2 48274  41.4660 249.2667 0010301 206.2157 153.8161 15.60093313267306
COSMOS 2550             
1 48865U 21056A   26002.78809697 -.00000166  00000+0  77585-6 0  9990
2 48865  67.1441 240.2690 0008340 269.2800  90.7399 15.33828757253355
CZ-2C R/B               
1 52794U 22058K   26002.19157010  .00040777  00000+0  69708-3 0  9995
2 52794  50.1924 299.1650 0043900 282.3337  77.2719 15.49737381199804
CZ-2C R/B               
1 54039U 22132E   26002.51434032  .00045868  00000+0  64658-3 0  9995
2 54039  97.2936   4.1305 0019137 344.1402  15.9251 15.56267913180064
GSLV R/B                
1 54149U 22138AN  26002.52221155  .00005787  00000+0  50756-3 0  9994
2 54149  87.3821 188.5130 0023230  37.0410 323.2419 14.96262023174039
XRISM                   
1 57800U 23137A   26002.25394175  .00010523  00000+0  61517-3 0  9995
2 57800  31.0035 353.0766 0007610  93.5501 266.6008 15.10604286127732
ACS3                    
1 59588U 24077B   26002.76140984  .00031353  00000+0  26370-1 0  9997
2 59588  97.2524 318.6694 0069790 285.7423  73.6050 13.86639121 85054
SZ-21 MODULE            
1 66515U 25246C   26002.68808541  .00040143  00000+0  41839-3 0  9991
2 66515  41.4757 248.1478 0002389  22.7374 337.3571 15.63766644  7727
